IRIDIUM 39              
1 25042U 97069D   24178.47617662  .00000868  00000+0  22774-3 0  9991
2 25042  86.3921   3.5751 0020103  57.4186 302.8955 14.48020302397467
IRIDIUM 38              
1 25043U 97069E   24178.11186330  .00000525  00000+0  16957-3 0  9992
2 25043  86.3961  22.9129 0002557 131.7865 228.3552 14.37307648394796
IRIDIUM 42              
1 25077U 97077A   24178.52378149  .00000502  00000+0  16760-3 0  9991
2 25077  86.3964  28.4711 0001941 104.4228 255.7184 14.35604155390152
IRIDIUM 44              
1 25078U 97077B   24178.45939771  .00000602  00000+0  18715-3 0  9991
2 25078  86.3960  11.3814 0003866 101.4420 258.7213 14.39446426392510
IRIDIUM 45              
1 25104U 97082A   24178.20217735  .00012100  00000+0  67060-3 0  9992
2 25104  86.3748 218.0164 0157747 205.6569 153.6781 15.03556197398212
IRIDIUM 24              
1 25105U 97082B   24178.53618367  .00000659  00000+0  19785-3 0  9992
2 25105  86.3917 230.9137 0012128 162.0836 198.0794 14.41233767392228
IRIDIUM 51              
1 25262U 98018A   24178.18304193  .00019608  00000+0  88739-3 0  9995
2 25262  86.3952 227.8193 0145408 148.9554 212.0383 15.11696833392996
