<?xml version="1.0" encoding="UTF-8"?>
<ndm xmlns:xsi="http://www.w3.org/2001/XMLSchema-instance" xsi:noNamespaceSchemaLocation="https://sanaregistry.org/r/ndmxml_unqualified/ndmxml-2.0.0-master-2.0.xsd">
<omm id="CCSDS_OMM_VERS" version="2.0">
<header><CREATION_DATE/><ORIGINATOR/></header><body><segment><metadata><OBJECT_NAME>IRIDIUM 39</OBJECT_NAME><OBJECT_ID>1997-069D</OBJECT_ID><CENTER_NAME>EARTH</CENTER_NAME><REF_FRAME>TEME</REF_FRAME><TIME_SYSTEM>UTC</TIME_SYSTEM><MEAN_ELEMENT_THEORY>SGP4</MEAN_ELEMENT_THEORY></metadata><data><meanElements><EPOCH>2024-06-26T11:25:41.659968</EPOCH><MEAN_MOTION>14.48020302</MEAN_MOTION><ECCENTRICITY>.0020103</ECCENTRICITY><INCLINATION>86.3921</INCLINATION><RA_OF_ASC_NODE>3.5751</RA_OF_ASC_NODE><ARG_OF_PERICENTER>57.4186</ARG_OF_PERICENTER><MEAN_ANOMALY>302.8955</MEAN_ANOMALY></meanElements><tleParameters><EPHEMERIS_TYPE>0</EPHEMERIS_TYPE><CLASSIFICATION_TYPE>U</CLASSIFICATION_TYPE><NORAD_CAT_ID>25042</NORAD_CAT_ID><ELEMENT_SET_NO>999</ELEMENT_SET_NO><REV_AT_EPOCH>39746</REV_AT_EPOCH><BSTAR>.22774E-3</BSTAR><MEAN_MOTION_DOT>.868E-5</MEAN_MOTION_DOT><MEAN_MOTION_DDOT>0</MEAN_MOTION_DDOT></tleParameters></data></segment></body></omm>
<omm id="CCSDS_OMM_VERS" version="2.0">
<header><CREATION_DATE/><ORIGINATOR/></header><body><segment><metadata><OBJECT_NAME>IRIDIUM 38</OBJECT_NAME><OBJECT_ID>1997-069E</OBJECT_ID><CENTER_NAME>EARTH</CENTER_NAME><REF_FRAME>TEME</REF_FRAME><TIME_SYSTEM>UTC</TIME_SYSTEM><MEAN_ELEMENT_THEORY>SGP4</MEAN_ELEMENT_THEORY></metadata><data><meanElements><EPOCH>2024-06-26T02:41:04.989120</EPOCH><MEAN_MOTION>14.37307648</MEAN_MOTION><ECCENTRICITY>.0002557</ECCENTRICITY><INCLINATION>86.3961</INCLINATION><RA_OF_ASC_NODE>22.9129</RA_OF_ASC_NODE><ARG_OF_PERICENTER>131.7865</ARG_OF_PERICENTER><MEAN_ANOMALY>228.3552</MEAN_ANOMALY></meanElements><tleParameters><EPHEMERIS_TYPE>0</EPHEMERIS_TYPE><CLASSIFICATION_TYPE>U</CLASSIFICATION_TYPE><NORAD_CAT_ID>25043</NORAD_CAT_ID><ELEMENT_SET_NO>999</ELEMENT_SET_NO><REV_AT_EPOCH>39479</REV_AT_EPOCH><BSTAR>.16957E-3</BSTAR><MEAN_MOTION_DOT>.525E-5</MEAN_MOTION_DOT><MEAN_MOTION_DDOT>0</MEAN_MOTION_DDOT></tleParameters></data></segment></body></omm>
<omm id="CCSDS_OMM_VERS" version="2.0">
<header><CREATION_DATE/><ORIGINATOR/></header><body><segment><metadata><OBJECT_NAME>IRIDIUM 42</OBJECT_NAME><OBJECT_ID>1997-077A</OBJECT_ID><CENTER_NAME>EARTH</CENTER_NAME><REF_FRAME>TEME</REF_FRAME><TIME_SYSTEM>UTC</TIME_SYSTEM><MEAN_ELEMENT_THEORY>SGP4</MEAN_ELEMENT_THEORY></metadata><data><meanElements><EPOCH>2024-06-26T12:34:14.720736</EPOCH><MEAN_MOTION>14.35604155</MEAN_MOTION><ECCENTRICITY>.0001941</ECCENTRICITY><INCLINATION>86.3964</INCLINATION><RA_OF_ASC_NODE>28.4711</RA_OF_ASC_NODE><ARG_OF_PERICENTER>104.4228</ARG_OF_PERICENTER><MEAN_ANOMALY>255.7184</MEAN_ANOMALY></meanElements><tleParameters><EPHEMERIS_TYPE>0</EPHEMERIS_TYPE><CLASSIFICATION_TYPE>U</CLASSIFICATION_TYPE><NORAD_CAT_ID>25077</NORAD_CAT_ID><ELEMENT_SET_NO>999</ELEMENT_SET_NO><REV_AT_EPOCH>39015</REV_AT_EPOCH><BSTAR>.1676E-3</BSTAR><MEAN_MOTION_DOT>.502E-5</MEAN_MOTION_DOT><MEAN_MOTION_DDOT>0</MEAN_MOTION_DDOT></tleParameters></data></segment></body></omm>
<omm id="CCSDS_OMM_VERS" version="2.0">
<header><CREATION_DATE/><ORIGINATOR/></header><body><segment><metadata><OBJECT_NAME>IRIDIUM 44</OBJECT_NAME><OBJECT_ID>1997-077B</OBJECT_ID><CENTER_NAME>EARTH</CENTER_NAME><REF_FRAME>TEME</REF_FRAME><TIME_SYSTEM>UTC</TIME_SYSTEM><MEAN_ELEMENT_THEORY>SGP4</MEAN_ELEMENT_THEORY></metadata><data><meanElements><EPOCH>2024-06-26T11:01:31.962144</EPOCH><MEAN_MOTION>14.39446426</MEAN_MOTION><ECCENTRICITY>.0003866</ECCENTRICITY><INCLINATION>86.3960</INCLINATION><RA_OF_ASC_NODE>11.3814</RA_OF_ASC_NODE><ARG_OF_PERICENTER>101.4420</ARG_OF_PERICENTER><MEAN_ANOMALY>258.7213</MEAN_ANOMALY></meanElements><tleParameters><EPHEMERIS_TYPE>0</EPHEMERIS_TYPE><CLASSIFICATION_TYPE>U</CLASSIFICATION_TYPE><NORAD_CAT_ID>25078</NORAD_CAT_ID><ELEMENT_SET_NO>999</ELEMENT_SET_NO><REV_AT_EPOCH>39251</REV_AT_EPOCH><BSTAR>.18715E-3</BSTAR><MEAN_MOTION_DOT>.602E-5</MEAN_MOTION_DOT><MEAN_MOTION_DDOT>0</MEAN_MOTION_DDOT></tleParameters></data></segment></body></omm>
<omm id="CCSDS_OMM_VERS" version="2.0">
<header><CREATION_DATE/><ORIGINATOR/></header><body><segment><metadata><OBJECT_NAME>IRIDIUM 45</OBJECT_NAME><OBJECT_ID>1997-082A</OBJECT_ID><CENTER_NAME>EARTH</CENTER_NAME><REF_FRAME>TEME</REF_FRAME><TIME_SYSTEM>UTC</TIME_SYSTEM><MEAN_ELEMENT_THEORY>SGP4</MEAN_ELEMENT_THEORY></metadata><data><meanElements><EPOCH>2024-06-26T04:51:08.123040</EPOCH><MEAN_MOTION>15.03556197</MEAN_MOTION><ECCENTRICITY>.0157747</ECCENTRICITY><INCLINATION>86.3748</INCLINATION><RA_OF_ASC_NODE>218.0164</RA_OF_ASC_NODE><ARG_OF_PERICENTER>205.6569</ARG_OF_PERICENTER><MEAN_ANOMALY>153.6781</MEAN_ANOMALY></meanElements><tleParameters><EPHEMERIS_TYPE>0</EPHEMERIS_TYPE><CLASSIFICATION_TYPE>U</CLASSIFICATION_TYPE><NORAD_CAT_ID>25104</NORAD_CAT_ID><ELEMENT_SET_NO>999</ELEMENT_SET_NO><REV_AT_EPOCH>39821</REV_AT_EPOCH><BSTAR>.6706E-3</BSTAR><MEAN_MOTION_DOT>.121E-3</MEAN_MOTION_DOT><MEAN_MOTION_DDOT>0</MEAN_MOTION_DDOT></tleParameters></data></segment></body></omm>
<omm id="CCSDS_OMM_VERS" version="2.0">
<header><CREATION_DATE/><ORIGINATOR/></header><body><segment><metadata><OBJECT_NAME>IRIDIUM 24</OBJECT_NAME><OBJECT_ID>1997-082B</OBJECT_ID><CENTER_NAME>EARTH</CENTER_NAME><REF_FRAME>TEME</REF_FRAME><TIME_SYSTEM>UTC</TIME_SYSTEM><MEAN_ELEMENT_THEORY>SGP4</MEAN_ELEMENT_THEORY></metadata><data><meanElements><EPOCH>2024-06-26T12:52:06.269088</EPOCH><MEAN_MOTION>14.41233767</MEAN_MOTION><ECCENTRICITY>.0012128</ECCENTRICITY><INCLINATION>86.3917</INCLINATION><RA_OF_ASC_NODE>230.9137</RA_OF_ASC_NODE><ARG_OF_PERICENTER>162.0836</ARG_OF_PERICENTER><MEAN_ANOMALY>198.0794</MEAN_ANOMALY></meanElements><tleParameters><EPHEMERIS_TYPE>0</EPHEMERIS_TYPE><CLASSIFICATION_TYPE>U</CLASSIFICATION_TYPE><NORAD_CAT_ID>25105</NORAD_CAT_ID><ELEMENT_SET_NO>999</ELEMENT_SET_NO><REV_AT_EPOCH>39197</REV_AT_EPOCH><BSTAR>.19785E-3</BSTAR><MEAN_MOTION_DOT>.659E-5</MEAN_MOTION_DOT><MEAN_MOTION_DDOT>0</MEAN_MOTION_DDOT></tleParameters></data></segment></body></omm>
<omm id="CCSDS_OMM_VERS" version="2.0">
<header><CREATION_DATE/><ORIGINATOR/></header><body><segment><metadata><OBJECT_NAME>IRIDIUM 51</OBJECT_NAME><OBJECT_ID>1998-018A</OBJECT_ID><CENTER_NAME>EARTH</CENTER_NAME><REF_FRAME>TEME</REF_FRAME><TIME_SYSTEM>UTC</TIME_SYSTEM><MEAN_ELEMENT_THEORY>SGP4</MEAN_ELEMENT_THEORY></metadata><data><meanElements><EPOCH>2024-06-26T04:23:34.822752</EPOCH><MEAN_MOTION>15.11696833</MEAN_MOTION><ECCENTRICITY>.0145408</ECCENTRICITY><INCLINATION>86.3952</INCLINATION><RA_OF_ASC_NODE>227.8193</RA_OF_ASC_NODE><ARG_OF_PERICENTER>148.9554</ARG_OF_PERICENTER><MEAN_ANOMALY>212.0383</MEAN_ANOMALY></meanElements><tleParameters><EPHEMERIS_TYPE>0</EPHEMERIS_TYPE><CLASSIFICATION_TYPE>U</CLASSIFICATION_TYPE><NORAD_CAT_ID>25262</NORAD_CAT_ID><ELEMENT_SET_NO>999</ELEMENT_SET_NO><REV_AT_EPOCH>39299</REV_AT_EPOCH><BSTAR>.88739E-3</BSTAR><MEAN_MOTION_DOT>.19608E-3</MEAN_MOTION_DOT><MEAN_MOTION_DDOT>0</MEAN_MOTION_DDOT></tleParameters></data></segment></body></omm>

</ndm>
